STARLINK-36104          
1 66964U 25288F   25357.83334491 -.01929090  00000+0 -16445-1 0  9995
2 66964  43.0004  99.3764 0001216 281.2529 288.7928 15.71573254  3615
STARLINK-36067          
1 66965U 25288G   25357.83334491 -.01935144  00000+0 -16500-1 0  9995
2 66965  43.0003  99.3720 0001261 280.3491 291.6137 15.71577124  3610
STARLINK-36139          
1 66966U 25288H   25357.83334491 -.01929228  00000+0 -16445-1 0  9990
2 66966  43.0003  99.3672 0001373 278.3208 295.5603 15.71573161  3612
STARLINK-36136          
1 66967U 25288J   25357.83334491 -.01934132  00000+0 -16490-1 0  9991
2 66967  43.0003  99.3620 0001331 275.2380 300.5606 15.71575854  3618
STARLINK-36152          
1 66968U 25288K   25357.83334491 -.01933850  00000+0 -16489-1 0  9996
2 66968  43.0003  99.3573 0001261 280.7236 296.9914 15.71575167  3616
STARLINK-36149          
1 66969U 25288L   25357.83334491 -.01934546  00000+0 -16496-1 0  9998
2 66969  43.0004  99.3332 0001251 278.9050 308.3980 15.71574357  3614
STARLINK-35703          
1 66970U 25288M   25357.83334491 -.01926305  00000+0 -16418-1 0  9998
2 66970  43.0006  99.3135 0001391 276.7037 318.2667 15.71571111  3612
STARLINK-35678          
1 66971U 25288N   25357.83334491 -.01928779  00000+0 -16442-1 0  9993
2 66971  43.0004  99.3531 0001326 272.2191 307.4163 15.71571793  3618
STARLINK-34846          
1 66972U 25288P   25357.83334491 -.01928320  00000+0 -16437-1 0  9990
2 66972  43.0003  99.3485 0001326 275.5383 306.0126 15.71572331  3618
STARLINK-35778          
1 66973U 25288Q   25357.83334491 -.01927401  00000+0 -16427-1 0  9999
2 66973  43.0002  99.3439 0001434 273.3588 310.1082 15.71572323  3618
STARLINK-35780          
1 66974U 25288R   25357.83334491 -.01926966  00000+0 -16426-1 0  9994
2 66974  43.0005  99.3390 0001197 276.8267 308.5587 15.71571022  3612
STARLINK-35777          
1 66975U 25288S   25357.83334491 -.01925930  00000+0 -16417-1 0  9995
2 66975  43.0004  99.3286 0001230 273.4650 315.7556 15.71569807  3617
