CCSDS_OMM_VERS = 2.0
CREATION_DATE  = 
ORIGINATOR     = 

OBJECT_NAME    = STARLINK-36104
OBJECT_ID      = 2025-288F
CENTER_NAME    = EARTH
REF_FRAME      = TEME
TIME_SYSTEM    = UTC
MEAN_ELEMENT_THEORY = SGP/SGP4

EPOCH          = 2025-12-23T20:00:01.000224
MEAN_MOTION    = 15.71573254
ECCENTRICITY   = .0001216
INCLINATION    = 43.0004
RA_OF_ASC_NODE = 99.3764
ARG_OF_PERICENTER = 281.2529
MEAN_ANOMALY   = 288.7928

EPHEMERIS_TYPE = 0
CLASSIFICATION_TYPE = U
NORAD_CAT_ID   = 66964
ELEMENT_SET_NO = 999
REV_AT_EPOCH   = 361
BSTAR          = -.16445E-1
MEAN_MOTION_DOT = -.192909E-1
MEAN_MOTION_DDOT = 0

CCSDS_OMM_VERS = 2.0
CREATION_DATE  = 
ORIGINATOR     = 

OBJECT_NAME    = STARLINK-36067
OBJECT_ID      = 2025-288G
CENTER_NAME    = EARTH
REF_FRAME      = TEME
TIME_SYSTEM    = UTC
MEAN_ELEMENT_THEORY = SGP/SGP4

EPOCH          = 2025-12-23T20:00:01.000224
MEAN_MOTION    = 15.71577124
ECCENTRICITY   = .0001261
INCLINATION    = 43.0003
RA_OF_ASC_NODE = 99.3720
ARG_OF_PERICENTER = 280.3491
MEAN_ANOMALY   = 291.6137

EPHEMERIS_TYPE = 0
CLASSIFICATION_TYPE = U
NORAD_CAT_ID   = 66965
ELEMENT_SET_NO = 999
REV_AT_EPOCH   = 361
BSTAR          = -.165E-1
MEAN_MOTION_DOT = -.1935144E-1
MEAN_MOTION_DDOT = 0

CCSDS_OMM_VERS = 2.0
CREATION_DATE  = 
ORIGINATOR     = 

OBJECT_NAME    = STARLINK-36139
OBJECT_ID      = 2025-288H
CENTER_NAME    = EARTH
REF_FRAME      = TEME
TIME_SYSTEM    = UTC
MEAN_ELEMENT_THEORY = SGP/SGP4

EPOCH          = 2025-12-23T20:00:01.000224
MEAN_MOTION    = 15.71573161
ECCENTRICITY   = .0001373
INCLINATION    = 43.0003
RA_OF_ASC_NODE = 99.3672
ARG_OF_PERICENTER = 278.3208
MEAN_ANOMALY   = 295.5603

EPHEMERIS_TYPE = 0
CLASSIFICATION_TYPE = U
NORAD_CAT_ID   = 66966
ELEMENT_SET_NO = 999
REV_AT_EPOCH   = 361
BSTAR          = -.16445E-1
MEAN_MOTION_DOT = -.1929228E-1
MEAN_MOTION_DDOT = 0

CCSDS_OMM_VERS = 2.0
CREATION_DATE  = 
ORIGINATOR     = 

OBJECT_NAME    = STARLINK-36136
OBJECT_ID      = 2025-288J
CENTER_NAME    = EARTH
REF_FRAME      = TEME
TIME_SYSTEM    = UTC
MEAN_ELEMENT_THEORY = SGP/SGP4

EPOCH          = 2025-12-23T20:00:01.000224
MEAN_MOTION    = 15.71575854
ECCENTRICITY   = .0001331
INCLINATION    = 43.0003
RA_OF_ASC_NODE = 99.3620
ARG_OF_PERICENTER = 275.2380
MEAN_ANOMALY   = 300.5606

EPHEMERIS_TYPE = 0
CLASSIFICATION_TYPE = U
NORAD_CAT_ID   = 66967
ELEMENT_SET_NO = 999
REV_AT_EPOCH   = 361
BSTAR          = -.1649E-1
MEAN_MOTION_DOT = -.1934132E-1
MEAN_MOTION_DDOT = 0

CCSDS_OMM_VERS = 2.0
CREATION_DATE  = 
ORIGINATOR     = 

OBJECT_NAME    = STARLINK-36152
OBJECT_ID      = 2025-288K
CENTER_NAME    = EARTH
REF_FRAME      = TEME
TIME_SYSTEM    = UTC
MEAN_ELEMENT_THEORY = SGP/SGP4

EPOCH          = 2025-12-23T20:00:01.000224
MEAN_MOTION    = 15.71575167
ECCENTRICITY   = .0001261
INCLINATION    = 43.0003
RA_OF_ASC_NODE = 99.3573
ARG_OF_PERICENTER = 280.7236
MEAN_ANOMALY   = 296.9914

EPHEMERIS_TYPE = 0
CLASSIFICATION_TYPE = U
NORAD_CAT_ID   = 66968
ELEMENT_SET_NO = 999
REV_AT_EPOCH   = 361
BSTAR          = -.16489E-1
MEAN_MOTION_DOT = -.193385E-1
MEAN_MOTION_DDOT = 0

CCSDS_OMM_VERS = 2.0
CREATION_DATE  = 
ORIGINATOR     = 

OBJECT_NAME    = STARLINK-36149
OBJECT_ID      = 2025-288L
CENTER_NAME    = EARTH
REF_FRAME      = TEME
TIME_SYSTEM    = UTC
MEAN_ELEMENT_THEORY = SGP/SGP4

EPOCH          = 2025-12-23T20:00:01.000224
MEAN_MOTION    = 15.71574357
ECCENTRICITY   = .0001251
INCLINATION    = 43.0004
RA_OF_ASC_NODE = 99.3332
ARG_OF_PERICENTER = 278.9050
MEAN_ANOMALY   = 308.3980

EPHEMERIS_TYPE = 0
CLASSIFICATION_TYPE = U
NORAD_CAT_ID   = 66969
ELEMENT_SET_NO = 999
REV_AT_EPOCH   = 361
BSTAR          = -.16496E-1
MEAN_MOTION_DOT = -.1934546E-1
MEAN_MOTION_DDOT = 0

CCSDS_OMM_VERS = 2.0
CREATION_DATE  = 
ORIGINATOR     = 

OBJECT_NAME    = STARLINK-35703
OBJECT_ID      = 2025-288M
CENTER_NAME    = EARTH
REF_FRAME      = TEME
TIME_SYSTEM    = UTC
MEAN_ELEMENT_THEORY = SGP/SGP4

EPOCH          = 2025-12-23T20:00:01.000224
MEAN_MOTION    = 15.71571111
ECCENTRICITY   = .0001391
INCLINATION    = 43.0006
RA_OF_ASC_NODE = 99.3135
ARG_OF_PERICENTER = 276.7037
MEAN_ANOMALY   = 318.2667

EPHEMERIS_TYPE = 0
CLASSIFICATION_TYPE = U
NORAD_CAT_ID   = 66970
ELEMENT_SET_NO = 999
REV_AT_EPOCH   = 361
BSTAR          = -.16418E-1
MEAN_MOTION_DOT = -.1926305E-1
MEAN_MOTION_DDOT = 0

CCSDS_OMM_VERS = 2.0
CREATION_DATE  = 
ORIGINATOR     = 

OBJECT_NAME    = STARLINK-35678
OBJECT_ID      = 2025-288N
CENTER_NAME    = EARTH
REF_FRAME      = TEME
TIME_SYSTEM    = UTC
MEAN_ELEMENT_THEORY = SGP/SGP4

EPOCH          = 2025-12-23T20:00:01.000224
MEAN_MOTION    = 15.71571793
ECCENTRICITY   = .0001326
INCLINATION    = 43.0004
RA_OF_ASC_NODE = 99.3531
ARG_OF_PERICENTER = 272.2191
MEAN_ANOMALY   = 307.4163

EPHEMERIS_TYPE = 0
CLASSIFICATION_TYPE = U
NORAD_CAT_ID   = 66971
ELEMENT_SET_NO = 999
REV_AT_EPOCH   = 361
BSTAR          = -.16442E-1
MEAN_MOTION_DOT = -.1928779E-1
MEAN_MOTION_DDOT = 0

CCSDS_OMM_VERS = 2.0
CREATION_DATE  = 
ORIGINATOR     = 

OBJECT_NAME    = STARLINK-34846
OBJECT_ID      = 2025-288P
CENTER_NAME    = EARTH
REF_FRAME      = TEME
TIME_SYSTEM    = UTC
MEAN_ELEMENT_THEORY = SGP/SGP4

EPOCH          = 2025-12-23T20:00:01.000224
MEAN_MOTION    = 15.71572331
ECCENTRICITY   = .0001326
INCLINATION    = 43.0003
RA_OF_ASC_NODE = 99.3485
ARG_OF_PERICENTER = 275.5383
MEAN_ANOMALY   = 306.0126

EPHEMERIS_TYPE = 0
CLASSIFICATION_TYPE = U
NORAD_CAT_ID   = 66972
ELEMENT_SET_NO = 999
REV_AT_EPOCH   = 361
BSTAR          = -.16437E-1
MEAN_MOTION_DOT = -.192832E-1
MEAN_MOTION_DDOT = 0

CCSDS_OMM_VERS = 2.0
CREATION_DATE  = 
ORIGINATOR     = 

OBJECT_NAME    = STARLINK-35778
OBJECT_ID      = 2025-288Q
CENTER_NAME    = EARTH
REF_FRAME      = TEME
TIME_SYSTEM    = UTC
MEAN_ELEMENT_THEORY = SGP/SGP4

EPOCH          = 2025-12-23T20:00:01.000224
MEAN_MOTION    = 15.71572323
ECCENTRICITY   = .0001434
INCLINATION    = 43.0002
RA_OF_ASC_NODE = 99.3439
ARG_OF_PERICENTER = 273.3588
MEAN_ANOMALY   = 310.1082

EPHEMERIS_TYPE = 0
CLASSIFICATION_TYPE = U
NORAD_CAT_ID   = 66973
ELEMENT_SET_NO = 999
REV_AT_EPOCH   = 361
BSTAR          = -.16427E-1
MEAN_MOTION_DOT = -.1927401E-1
MEAN_MOTION_DDOT = 0

CCSDS_OMM_VERS = 2.0
CREATION_DATE  = 
ORIGINATOR     = 

OBJECT_NAME    = STARLINK-35780
OBJECT_ID      = 2025-288R
CENTER_NAME    = EARTH
REF_FRAME      = TEME
TIME_SYSTEM    = UTC
MEAN_ELEMENT_THEORY = SGP/SGP4

EPOCH          = 2025-12-23T20:00:01.000224
MEAN_MOTION    = 15.71571022
ECCENTRICITY   = .0001197
INCLINATION    = 43.0005
RA_OF_ASC_NODE = 99.3390
ARG_OF_PERICENTER = 276.8267
MEAN_ANOMALY   = 308.5587

EPHEMERIS_TYPE = 0
CLASSIFICATION_TYPE = U
NORAD_CAT_ID   = 66974
ELEMENT_SET_NO = 999
REV_AT_EPOCH   = 361
BSTAR          = -.16426E-1
MEAN_MOTION_DOT = -.1926966E-1
MEAN_MOTION_DDOT = 0

CCSDS_OMM_VERS = 2.0
CREATION_DATE  = 
ORIGINATOR     = 

OBJECT_NAME    = STARLINK-35777
OBJECT_ID      = 2025-288S
CENTER_NAME    = EARTH
REF_FRAME      = TEME
TIME_SYSTEM    = UTC
MEAN_ELEMENT_THEORY = SGP/SGP4

EPOCH          = 2025-12-23T20:00:01.000224
MEAN_MOTION    = 15.71569807
ECCENTRICITY   = .000123
INCLINATION    = 43.0004
RA_OF_ASC_NODE = 99.3286
ARG_OF_PERICENTER = 273.4650
MEAN_ANOMALY   = 315.7556

EPHEMERIS_TYPE = 0
CLASSIFICATION_TYPE = U
NORAD_CAT_ID   = 66975
ELEMENT_SET_NO = 999
REV_AT_EPOCH   = 361
BSTAR          = -.16417E-1
MEAN_MOTION_DOT = -.192593E-1
MEAN_MOTION_DDOT = 0

